QIANFAN-89              
1 63175U 25046S   25216.59681215  .00000140  00000+0  19816-3 0  9994
2 63175  88.9860 333.4475 0018146 138.4089 221.8446 13.50964005 29837
QIANFAN-90              
1 63176U 25046T   25216.55153758  .00000143  00000+0  20189-3 0  9995
2 63176  88.9861 333.4243 0015121 136.2226 224.0127 13.50962615 29848
